start=new Date('2023-02-26T00:00:00.000Z').valueOf();
sats=[{"INCLINATION":"97.6542","REV_AT_EPOCH":"3311","MEAN_ANOMALY":"263.4235","PERIOD":"95.919","NORAD_CAT_ID":"53231","SEMIMAJOR_AXIS":"6941.130","ELEMENT_SET_NO":"999","MEAN_MOTION_DOT":"0.00002073","MEAN_MOTION":"15.01265467","MEAN_ELEMENT_THEORY":"SGP4","TIME_SYSTEM":"UTC","DECAY_DATE":null,"APOAPSIS":"564.074","ARG_OF_PERICENTER":"96.7167","SITE":"AFWTR","MEAN_MOTION_DDOT":"0.0000000000000","OBJECT_NAME":"STARLINK-4370","RA_OF_ASC_NODE":"119.5488","OBJECT_TYPE":"PAYLOAD","BSTAR":"0.00016591000000","ECCENTRICITY":"0.00015550","EPHEMERIS_TYPE":"0","FILE":"3839003","CLASSIFICATION_TYPE":"U","TLE_LINE1":"1 53231U 22084AU  23056.88904384  .00002073  00000-0  16591-3 0  9997","EPOCH":"2023-02-25T21:20:13.387776","COUNTRY_CODE":"US","TLE_LINE2":"2 53231  97.6542 119.5488 0001555  96.7167 263.4235 15.01265467 33117","PERIAPSIS":"561.916","REF_FRAME":"TEME","OBJECT_ID":"2022-084AU","CENTER_NAME":"EARTH","GP_ID":"226914944","LAUNCH_DATE":"2022-07-22","RCS_SIZE":"LARGE"},{"REF_FRAME":"TEME","PERIAPSIS":"562.044","TLE_LINE2":"2 53232  97.6553 119.5493 0001357  98.1026 262.0352 15.01268418 33110","LAUNCH_DATE":"2022-07-22","GP_ID":"226914692","RCS_SIZE":"LARGE","OBJECT_ID":"2022-084AV","CENTER_NAME":"EARTH","CLASSIFICATION_TYPE":"U","FILE":"3839003","COUNTRY_CODE":"US","EPOCH":"2023-02-25T21:22:53.249376","TLE_LINE1":"1 53232U 22084AV  23056.89089409  .00000483  00000-0  42185-4 0  9993","APOAPSIS":"563.928","BSTAR":"0.00004218500000","OBJECT_TYPE":"PAYLOAD","RA_OF_ASC_NODE":"119.5493","ECCENTRICITY":"0.00013570","EPHEMERIS_TYPE":"0","SITE":"AFWTR","MEAN_MOTION_DDOT":"0.0000000000000","ARG_OF_PERICENTER":"98.1026","OBJECT_NAME":"STARLINK-4371","MEAN_ANOMALY":"262.0352","PERIOD":"95.919","INCLINATION":"97.6553","REV_AT_EPOCH":"3311","MEAN_ELEMENT_THEORY":"SGP4","TIME_SYSTEM":"UTC","DECAY_DATE":null,"ELEMENT_SET_NO":"999","NORAD_CAT_ID":"53232","SEMIMAJOR_AXIS":"6941.121","MEAN_MOTION":"15.01268418","MEAN_MOTION_DOT":"0.00000483"},{"REV_AT_EPOCH":"3311","INCLINATION":"97.6566","PERIOD":"95.919","MEAN_ANOMALY":"257.9373","MEAN_MOTION_DOT":"-0.00000152","MEAN_MOTION":"15.01265827","SEMIMAJOR_AXIS":"6941.129","NORAD_CAT_ID":"53233","ELEMENT_SET_NO":"999","TIME_SYSTEM":"UTC","DECAY_DATE":null,"MEAN_ELEMENT_THEORY":"SGP4","APOAPSIS":"563.928","OBJECT_NAME":"STARLINK-4372","ARG_OF_PERICENTER":"102.2002","SITE":"AFWTR","MEAN_MOTION_DDOT":"0.0000000000000","EPHEMERIS_TYPE":"0","ECCENTRICITY":"0.00013460","OBJECT_TYPE":"PAYLOAD","RA_OF_ASC_NODE":"119.5406","BSTAR":"-0.00000722860000","CLASSIFICATION_TYPE":"U","FILE":"3839003","TLE_LINE1":"1 53233U 22084AW  23056.88719056 -.00000152  00000-0 -72286-5 0  9992","EPOCH":"2023-02-25T21:17:33.264384","COUNTRY_CODE":"US","TLE_LINE2":"2 53233  97.6566 119.5406 0001346 102.2002 257.9373 15.01265827 33115","PERIAPSIS":"562.060","REF_FRAME":"TEME","CENTER_NAME":"EARTH","OBJECT_ID":"2022-084AW","RCS_SIZE":"LARGE","GP_ID":"226913446","LAUNCH_DATE":"2022-07-22"},{"FILE":"3839003","CLASSIFICATION_TYPE":"U","EPOCH":"2023-02-25T21:15:14.583744","COUNTRY_CODE":"US","TLE_LINE1":"1 53234U 22084AX  23056.88558546 -.00001019  00000-0 -74769-4 0  9998","PERIAPSIS":"562.056","REF_FRAME":"TEME","TLE_LINE2":"2 53234  97.6563 119.5403 0001350 102.4916 257.6459 15.01266192 34121","GP_ID":"226914197","LAUNCH_DATE":"2022-07-22","RCS_SIZE":"LARGE","OBJECT_ID":"2022-084AX","CENTER_NAME":"EARTH","MEAN_ANOMALY":"257.6459","PERIOD":"95.919","INCLINATION":"97.6563","REV_AT_EPOCH":"3412","MEAN_ELEMENT_THEORY":"SGP4","DECAY_DATE":null,"TIME_SYSTEM":"UTC","SEMIMAJOR_AXIS":"6941.128","NORAD_CAT_ID":"53234","ELEMENT_SET_NO":"999","MEAN_MOTION_DOT":"-0.00001019","MEAN_MOTION":"15.01266192","APOAPSIS":"563.930","OBJECT_TYPE":"PAYLOAD","RA_OF_ASC_NODE":"119.5403","BSTAR":"-0.00007476900000","ECCENTRICITY":"0.00013500","EPHEMERIS_TYPE":"0","ARG_OF_PERICENTER":"102.4916","SITE":"AFWTR","MEAN_MOTION_DDOT":"0.0000000000000","OBJECT_NAME":"STARLINK-4368"},{"TLE_LINE2":"2 53242  53.2156 132.1511 0001187 107.7652 252.3470 15.08841910 34073","PERIAPSIS":"538.918","REF_FRAME":"TEME","OBJECT_ID":"2022-086A","CENTER_NAME":"EARTH","GP_ID":"226915192","LAUNCH_DATE":"2022-07-24","RCS_SIZE":"LARGE","FILE":"3839003","CLASSIFICATION_TYPE":"U","TLE_LINE1":"1 53242U 22086A   23056.90468737  .00010257  00000-0  66159-3 0  9999","EPOCH":"2023-02-25T21:42:44.988768","COUNTRY_CODE":"US","APOAPSIS":"540.561","ARG_OF_PERICENTER":"107.7652","MEAN_MOTION_DDOT":"0.0000000000000","SITE":"AFETR","OBJECT_NAME":"STARLINK-4056","OBJECT_TYPE":"PAYLOAD","RA_OF_ASC_NODE":"132.1511","BSTAR":"0.00066159000000","EPHEMERIS_TYPE":"0","ECCENTRICITY":"0.00011870","INCLINATION":"53.2156","REV_AT_EPOCH":"3407","MEAN_ANOMALY":"252.3470","PERIOD":"95.437","NORAD_CAT_ID":"53242","SEMIMAJOR_AXIS":"6917.875","ELEMENT_SET_NO":"999","MEAN_MOTION_DOT":"0.00010257","MEAN_MOTION":"15.08841910","MEAN_ELEMENT_THEORY":"SGP4","TIME_SYSTEM":"UTC","DECAY_DATE":null},{"APOAPSIS":"540.515","BSTAR":"0.00134380000000","OBJECT_TYPE":"PAYLOAD","RA_OF_ASC_NODE":"138.0426","ECCENTRICITY":"0.00011240","EPHEMERIS_TYPE":"0","MEAN_MOTION_DDOT":"0.0000000000000","SITE":"AFETR","ARG_OF_PERICENTER":"99.4468","OBJECT_NAME":"STARLINK-4047","MEAN_ANOMALY":"260.6651","PERIOD":"95.437","INCLINATION":"53.2178","REV_AT_EPOCH":"3399","MEAN_ELEMENT_THEORY":"SGP4","TIME_SYSTEM":"UTC","DECAY_DATE":null,"ELEMENT_SET_NO":"999","NORAD_CAT_ID":"53243","SEMIMAJOR_AXIS":"6917.872","MEAN_MOTION":"15.08842756","MEAN_MOTION_DOT":"0.00021165","REF_FRAME":"TEME","PERIAPSIS":"538.959","TLE_LINE2":"2 53243  53.2178 138.0426 0001124  99.4468 260.6651 15.08842756 33993","LAUNCH_DATE":"2022-07-24","GP_ID":"226913947","RCS_SIZE":"LARGE","OBJECT_ID":"2022-086B","CENTER_NAME":"EARTH","FILE":"3839003","CLASSIFICATION_TYPE":"U","COUNTRY_CODE":"US","EPOCH":"2023-02-25T16:58:35.071104","TLE_LINE1":"1 53243U 22086B   23056.70735036  .00021165  00000-0  13438-2 0  9998"},{"ELEMENT_SET_NO":"999","NORAD_CAT_ID":"53244","SEMIMAJOR_AXIS":"6917.902","MEAN_MOTION":"15.08832816","MEAN_MOTION_DOT":"0.00000183","MEAN_ELEMENT_THEORY":"SGP4","DECAY_DATE":null,"TIME_SYSTEM":"UTC","INCLINATION":"53.2154","REV_AT_EPOCH":"3394","MEAN_ANOMALY":"262.3914","PERIOD":"95.438","SITE":"AFETR","MEAN_MOTION_DDOT":"0.0000000000000","ARG_OF_PERICENTER":"97.7213","OBJECT_NAME":"STARLINK-4125","BSTAR":"0.00002959500000","OBJECT_TYPE":"PAYLOAD","RA_OF_ASC_NODE":"138.9862","ECCENTRICITY":"0.00011920","EPHEMERIS_TYPE":"0","APOAPSIS":"540.592","TLE_LINE1":"1 53244U 22086C   23056.49759263  .00000183  00000-0  29595-4 0  9993","COUNTRY_CODE":"US","EPOCH":"2023-02-25T11:56:32.003232","FILE":"3837605","CLASSIFICATION_TYPE":"U","OBJECT_ID":"2022-086C","CENTER_NAME":"EARTH","LAUNCH_DATE":"2022-07-24","GP_ID":"226858617","RCS_SIZE":"LARGE","TLE_LINE2":"2 53244  53.2154 138.9862 0001192  97.7213 262.3914 15.08832816 33947","REF_FRAME":"TEME","PERIAPSIS":"538.943"},{"TIME_SYSTEM":"UTC","DECAY_DATE":null,"MEAN_ELEMENT_THEORY":"SGP4","MEAN_MOTION":"15.08835510","MEAN_MOTION_DOT":"0.00000237","ELEMENT_SET_NO":"999","SEMIMAJOR_AXIS":"6917.894","NORAD_CAT_ID":"53245","PERIOD":"95.438","MEAN_ANOMALY":"246.4030","REV_AT_EPOCH":"3396","INCLINATION":"53.2159","ECCENTRICITY":"0.00013300","EPHEMERIS_TYPE":"0","BSTAR":"0.00003295500000","OBJECT_TYPE":"PAYLOAD","RA_OF_ASC_NODE":"138.9543","OBJECT_NAME":"STARLINK-4124","SITE":"AFETR","MEAN_MOTION_DDOT":"0.0000000000000","ARG_OF_PERICENTER":"113.7102","APOAPSIS":"540.679","COUNTRY_CODE":"US","EPOCH":"2023-02-25T12:07:07.438944","TLE_LINE1":"1 53245U 22086D   23056.50494721  .00000237  00000-0  32955-4 0  9995","CLASSIFICATION_TYPE":"U","FILE":"3837605","RCS_SIZE":"LARGE","LAUNCH_DATE":"2022-07-24","GP_ID":"226858854","CENTER_NAME":"EARTH","OBJECT_ID":"2022-086D","REF_FRAME":"TEME","PERIAPSIS":"538.839","TLE_LINE2":"2 53245  53.2159 138.9543 0001330 113.7102 246.4030 15.08835510 33967"},{"COUNTRY_CODE":"US","EPOCH":"2023-02-25T16:47:59.456544","TLE_LINE1":"1 53246U 22086E   23056.69999371  .00019308  00000-0  12279-2 0  9991","FILE":"3839003","CLASSIFICATION_TYPE":"U","LAUNCH_DATE":"2022-07-24","GP_ID":"226914693","RCS_SIZE":"LARGE","OBJECT_ID":"2022-086E","CENTER_NAME":"EARTH","REF_FRAME":"TEME","PERIAPSIS":"538.532","TLE_LINE2":"2 53246  53.2160 138.0790 0001752  69.6425 290.4755 15.08840374 32865","MEAN_ELEMENT_THEORY":"SGP4","DECAY_DATE":null,"TIME_SYSTEM":"UTC","ELEMENT_SET_NO":"999","SEMIMAJOR_AXIS":"6917.879","NORAD_CAT_ID":"53246","MEAN_MOTION":"15.08840374","MEAN_MOTION_DOT":"0.00019308","MEAN_ANOMALY":"290.4755","PERIOD":"95.438","INCLINATION":"53.2160","REV_AT_EPOCH":"3286","BSTAR":"0.00122790000000","OBJECT_TYPE":"PAYLOAD","RA_OF_ASC_NODE":"138.0790","ECCENTRICITY":"0.00017520","EPHEMERIS_TYPE":"0","MEAN_MOTION_DDOT":"0.0000000000000","SITE":"AFETR","ARG_OF_PERICENTER":"69.6425","OBJECT_NAME":"STARLINK-4131","APOAPSIS":"540.956"},{"CLASSIFICATION_TYPE":"U","FILE":"3839003","COUNTRY_CODE":"US","EPOCH":"2023-02-25T21:38:51.440064","TLE_LINE1":"1 53247U 22086F   23056.90198426 -.00000248  00000-0  24921-5 0  9992","REF_FRAME":"TEME","PERIAPSIS":"538.984","TLE_LINE2":"2 53247  53.2162 132.1755 0001137  66.8096 293.3015 15.08831811 34076","LAUNCH_DATE":"2022-07-24","GP_ID":"226913447","RCS_SIZE":"LARGE","OBJECT_ID":"2022-086F","CENTER_NAME":"EARTH","MEAN_ANOMALY":"293.3015","PERIOD":"95.438","INCLINATION":"53.2162","REV_AT_EPOCH":"3407","MEAN_ELEMENT_THEORY":"SGP4","DECAY_DATE":null,"TIME_SYSTEM":"UTC","ELEMENT_SET_NO":"999","SEMIMAJOR_AXIS":"6917.905","NORAD_CAT_ID":"53247","MEAN_MOTION":"15.08831811","MEAN_MOTION_DOT":"-0.00000248","APOAPSIS":"540.557","BSTAR":"0.00000249210000","RA_OF_ASC_NODE":"132.1755","OBJECT_TYPE":"PAYLOAD","ECCENTRICITY":"0.00011370","EPHEMERIS_TYPE":"0","MEAN_MOTION_DDOT":"0.0000000000000","SITE":"AFETR","ARG_OF_PERICENTER":"66.8096","OBJECT_NAME":"STARLINK-4061"}];
